[{"OBJECT_NAME":"STARLINK-4194","OBJECT_ID":"2022-076Q","EPOCH":"2026-03-09T08:35:47.336928","MEAN_MOTION":15.08836645,"ECCENTRICITY":0.000135,"INCLINATION":53.2168,"RA_OF_ASC_NODE":95.6096,"ARG_OF_PERICENTER":100.9151,"MEAN_ANOMALY":259.1993,"EPHEMERIS_TYPE":0,"CLASSIFICATION_TYPE":"U","NORAD_CAT_ID":53000,"ELEMENT_SET_NO":999,"REV_AT_EPOCH":20279,"BSTAR":-2.0275785e-5,"MEAN_MOTION_DOT":-6.11e-6,"MEAN_MOTION_DDOT":0},{"OBJECT_NAME":"SL-24 PLAT","OBJECT_ID":"2014-033AR","EPOCH":"2026-03-09T22:47:27.152448","MEAN_MOTION":15.0919716,"ECCENTRICITY":0.00052059,"INCLINATION":98.0981,"RA_OF_ASC_NODE":61.9435,"ARG_OF_PERICENTER":212.2329,"MEAN_ANOMALY":147.8581,"EPHEMERIS_TYPE":0,"CLASSIFICATION_TYPE":"U","NORAD_CAT_ID":40049,"ELEMENT_SET_NO":999,"REV_AT_EPOCH":63724,"BSTAR":0.00046923352,"MEAN_MOTION_DOT":7.393e-5,"MEAN_MOTION_DDOT":0}]
